{"type": "FeatureCollection", "features": [ {"type": "Feature", "properties": {"norad_id": 34327, "name": "COSMOS 2251 DEB", "group": "cosmos-2251-debris", "lat": 34.29336169581409, "lon": 175.3258936797834, "alt_km": 584.9044396921017, "timestamp": "2025-12-16T15:45:51.439919+00:00", "meta": {"OBJECT_NAME": "COSMOS 2251 DEB", "OBJECT_ID": "1993-036NZ", "EPOCH": "2025-12-15T18:42:42.286176", "MEAN_MOTION": 14.8925245, "ECCENTRICITY": 0.00330126, "INCLINATION": 73.9934, "RA_OF_ASC_NODE": 165.7929, "ARG_OF_PERICENTER": 341.4939, "MEAN_ANOMALY": 33.2429, "EPHEMERIS_TYPE": 0, "CLASSIFICATION_TYPE": "U", "NORAD_CAT_ID": 34327, "ELEMENT_SET_NO": 999, "REV_AT_EPOCH": 89553, "BSTAR": 0.00082121463, "MEAN_MOTION_DOT": 7.825e-05, "MEAN_MOTION_DDOT": 0}, "tle": {"line1": "1 34327U 93036NZ  25349.77965609  .00007825  00000+0  82121-3 0  9990", "line2": "2 34327  73.9934 165.7929 0033012 341.4939  33.2429 14.89252450895530"}}, "geometry": {"type": "Point", "coordinates": [175.3258936797834, 34.29336169581409]}}, {"type": "Feature", "properties": {"norad_id": 34340, "name": "COSMOS 2251 DEB", "group": "cosmos-2251-debris", "lat": 73.9047414181753, "lon": 23.01620117022846, "alt_km": 794.9333146412573, "timestamp": "2025-12-16T15:45:51.439929+00:00", "meta": {"OBJECT_NAME": "COSMOS 2251 DEB", "OBJECT_ID": "1993-036PN", "EPOCH": "2025-12-15T22:13:03.401184", "MEAN_MOTION": 13.79584579, "ECCENTRICITY": 0.0283046, "INCLINATION": 74.079, "RA_OF_ASC_NODE": 302.6656, "ARG_OF_PERICENTER": 49.6879, "MEAN_ANOMALY": 6.2812, "EPHEMERIS_TYPE": 0, "CLASSIFICATION_TYPE": "U", "NORAD_CAT_ID": 34340, "ELEMENT_SET_NO": 999, "REV_AT_EPOCH": 84312, "BSTAR": 0.0013086824, "MEAN_MOTION_DOT": 1.802e-05, "MEAN_MOTION_DDOT": 0}, "tle": {"line1": "1 34340U 93036PN  25349.92573381  .00001802  00000+0  13087-2 0  9997", "line2": "2 34340  74.0790 302.6656 0283046  49.6879   6.2812 13.79584579843122"}}, "geometry": {"type": "Point", "coordinates": [23.01620117022846, 73.9047414181753]}}, {"type": "Feature", "properties": {"norad_id": 34343, "name": "COSMOS 2251 DEB", "group": "cosmos-2251-debris", "lat": -14.290196169559206, "lon": 77.77315828892809, "alt_km": 650.5900487978561, "timestamp": "2025-12-16T15:45:51.439939+00:00", "meta": {"OBJECT_NAME": "COSMOS 2251 DEB", "OBJECT_ID": "1993-036PR", "EPOCH": "2025-12-15T10:47:21.591744", "MEAN_MOTION": 14.69490573, "ECCENTRICITY": 0.00236209, "INCLINATION": 74.0201, "RA_OF_ASC_NODE": 84.299, "ARG_OF_PERICENTER": 358.094, "MEAN_ANOMALY": 83.0447, "EPHEMERIS_TYPE": 0, "CLASSIFICATION_TYPE": "U", "NORAD_CAT_ID": 34343, "ELEMENT_SET_NO": 999, "REV_AT_EPOCH": 88770, "BSTAR": 0.00091269795, "MEAN_MOTION_DOT": 5.406e-05, "MEAN_MOTION_DDOT": 0}, "tle": {"line1": "1 34343U 93036PR  25349.44955546  .00005406  00000+0  91270-3 0  9999", "line2": "2 34343  74.0201  84.2990 0023620 358.0940  83.0447 14.69490573887701"}}, "geometry": {"type": "Point", "coordinates": [77.77315828892809, -14.290196169559206]}}, {"type": "Feature", "properties": {"norad_id": 34344, "name": "COSMOS 2251 DEB", "group": "cosmos-2251-debris", "lat": 56.50008769097473, "lon": 129.08624440891583, "alt_km": 908.291315463227, "timestamp": "2025-12-16T15:45:51.439949+00:00", "meta": {"OBJECT_NAME": "COSMOS 2251 DEB", "OBJECT_ID": "1993-036PS", "EPOCH": "2025-12-15T07:24:28.775232", "MEAN_MOTION": 14.16429853, "ECCENTRICITY": 0.01560156, "INCLINATION": 73.9772, "RA_OF_ASC_NODE": 105.7607, "ARG_OF_PERICENTER": 289.3843, "MEAN_ANOMALY": 97.6651, "EPHEMERIS_TYPE": 0, "CLASSIFICATION_TYPE": "U", "NORAD_CAT_ID": 34344, "ELEMENT_SET_NO": 999, "REV_AT_EPOCH": 86133, "BSTAR": 0.0014546017, "MEAN_MOTION_DOT": 3.231e-05, "MEAN_MOTION_DDOT": 0}, "tle": {"line1": "1 34344U 93036PS  25349.30866638  .00003231  00000+0  14546-2 0  9992", "line2": "2 34344  73.9772 105.7607 0156015 289.3843  97.6651 14.16429853861334"}}, "geometry": {"type": "Point", "coordinates": [129.08624440891583, 56.50008769097473]}}, {"type": "Feature", "properties": {"norad_id": 34346, "name": "COSMOS 2251 DEB", "group": "cosmos-2251-debris", "lat": -59.873372273975896, "lon": -84.19464081268173, "alt_km": 1050.2215083098772, "timestamp": "2025-12-16T15:45:51.439959+00:00", "meta": {"OBJECT_NAME": "COSMOS 2251 DEB", "OBJECT_ID": "1993-036PU", "EPOCH": "2025-12-15T21:21:40.007232", "MEAN_MOTION": 13.99702523, "ECCENTRICITY": 0.02061723, "INCLINATION": 73.9947, "RA_OF_ASC_NODE": 306.7797, "ARG_OF_PERICENTER": 124.9415, "MEAN_ANOMALY": 268.3106, "EPHEMERIS_TYPE": 0, "CLASSIFICATION_TYPE": "U", "NORAD_CAT_ID": 34346, "ELEMENT_SET_NO": 999, "REV_AT_EPOCH": 85454, "BSTAR": 0.00067626016, "MEAN_MOTION_DOT": 1.166e-05, "MEAN_MOTION_DDOT": 0}, "tle": {"line1": "1 34346U 93036PU  25349.89004638  .00001166  00000+0  67626-3 0  9995", "line2": "2 34346  73.9947 306.7797 0206172 124.9415 268.3106 13.99702523854547"}}, "geometry": {"type": "Point", "coordinates": [-84.19464081268173, -59.873372273975896]}}, {"type": "Feature", "properties": {"norad_id": 34383, "name": "COSMOS 2251 DEB", "group": "cosmos-2251-debris", "lat": -52.73875230076597, "lon": 131.74767721020322, "alt_km": 546.715736492004, "timestamp": "2025-12-16T15:45:51.439969+00:00", "meta": {"OBJECT_NAME": "COSMOS 2251 DEB", "OBJECT_ID": "1993-036PY", "EPOCH": "2025-12-15T21:28:14.333376", "MEAN_MOTION": 15.09285651, "ECCENTRICITY": 0.00027174, "INCLINATION": 74.0217, "RA_OF_ASC_NODE": 291.1932, "ARG_OF_PERICENTER": 46.6945, "MEAN_ANOMALY": 9.2822, "EPHEMERIS_TYPE": 0, "CLASSIFICATION_TYPE": "U", "NORAD_CAT_ID": 34383, "ELEMENT_SET_NO": 999, "REV_AT_EPOCH": 89161, "BSTAR": 0.0020992281, "MEAN_MOTION_DOT": 0.00033577, "MEAN_MOTION_DDOT": 0}, "tle": {"line1": "1 34383U 93036PY  25349.89461034  .00033577  00000+0  20992-2 0  9998", "line2": "2 34383  74.0217 291.1932 0002717  46.6945   9.2822 15.09285651891612"}}, "geometry": {"type": "Point", "coordinates": [131.74767721020322, -52.73875230076597]}}, {"type": "Feature", "properties": {"norad_id": 34387, "name": "COSMOS 2251 DEB", "group": "cosmos-2251-debris", "lat": -27.436539359179328, "lon": -163.929322840154, "alt_km": 727.4785928990714, "timestamp": "2025-12-16T15:45:51.440040+00:00", "meta": {"OBJECT_NAME": "COSMOS 2251 DEB", "OBJECT_ID": "1993-036QC", "EPOCH": "2025-12-15T21:39:58.439808", "MEAN_MOTION": 14.43827389, "ECCENTRICITY": 0.00387999, "INCLINATION": 74.039, "RA_OF_ASC_NODE": 206.0166, "ARG_OF_PERICENTER": 302.4071, "MEAN_ANOMALY": 70.8519, "EPHEMERIS_TYPE": 0, "CLASSIFICATION_TYPE": "U", "NORAD_CAT_ID": 34387, "ELEMENT_SET_NO": 999, "REV_AT_EPOCH": 88227, "BSTAR": 0.00028220553, "MEAN_MOTION_DOT": 9.43e-06, "MEAN_MOTION_DDOT": 0}, "tle": {"line1": "1 34387U 93036QC  25349.90275972  .00000943  00000+0  28221-3 0  9993", "line2": "2 34387  74.0390 206.0166 0038799 302.4071  70.8519 14.43827389882270"}}, "geometry": {"type": "Point", "coordinates": [-163.929322840154, -27.436539359179328]}}, {"type": "Feature", "properties": {"norad_id": 34388, "name": "COSMOS 2251 DEB", "group": "cosmos-2251-debris", "lat": 30.656174850452395, "lon": -134.47470648400372, "alt_km": 731.8461196247945, "timestamp": "2025-12-16T15:45:51.440053+00:00", "meta": {"OBJECT_NAME": "COSMOS 2251 DEB", "OBJECT_ID": "1993-036QD", "EPOCH": "2025-12-15T18:24:47.768256", "MEAN_MOTION": 14.49381857, "ECCENTRICITY": 0.00139615, "INCLINATION": 74.039, "RA_OF_ASC_NODE": 217.4266, "ARG_OF_PERICENTER": 265.4318, "MEAN_ANOMALY": 166.5841, "EPHEMERIS_TYPE": 0, "CLASSIFICATION_TYPE": "U", "NORAD_CAT_ID": 34388, "ELEMENT_SET_NO": 999, "REV_AT_EPOCH": 88199, "BSTAR": 0.00044156688, "MEAN_MOTION_DOT": 1.663e-05, "MEAN_MOTION_DDOT": 0}, "tle": {"line1": "1 34388U 93036QD  25349.76721954  .00001663  00000+0  44157-3 0  9990", "line2": "2 34388  74.0390 217.4266 0013961 265.4318 166.5841 14.49381857881994"}}, "geometry": {"type": "Point", "coordinates": [-134.47470648400372, 30.656174850452395]}}, {"type": "Feature", "properties": {"norad_id": 34389, "name": "COSMOS 2251 DEB", "group": "cosmos-2251-debris", "lat": -53.101019599263566, "lon": -139.88812540875168, "alt_km": 746.6967249104027, "timestamp": "2025-12-16T15:45:51.440063+00:00", "meta": {"OBJECT_NAME": "COSMOS 2251 DEB", "OBJECT_ID": "1993-036QE", "EPOCH": "2025-12-15T20:21:48.887136", "MEAN_MOTION": 14.4154067, "ECCENTRICITY": 0.00290404, "INCLINATION": 74.0184, "RA_OF_ASC_NODE": 244.0498, "ARG_OF_PERICENTER": 355.5044, "MEAN_ANOMALY": 75.1809, "EPHEMERIS_TYPE": 0, "CLASSIFICATION_TYPE": "U", "NORAD_CAT_ID": 34389, "ELEMENT_SET_NO": 999, "REV_AT_EPOCH": 88057, "BSTAR": 0.00035036636, "MEAN_MOTION_DOT": 1.118e-05, "MEAN_MOTION_DDOT": 0}, "tle": {"line1": "1 34389U 93036QE  25349.84848249  .00001118  00000+0  35037-3 0  9999", "line2": "2 34389  74.0184 244.0498 0029040 355.5044  75.1809 14.41540670880575"}}, "geometry": {"type": "Point", "coordinates": [-139.88812540875168, -53.101019599263566]}}, {"type": "Feature", "properties": {"norad_id": 34396, "name": "COSMOS 2251 DEB", "group": "cosmos-2251-debris", "lat": -26.565531867370833, "lon": 108.14735911438406, "alt_km": 656.0304626987036, "timestamp": "2025-12-16T15:45:51.440074+00:00", "meta": {"OBJECT_NAME": "COSMOS 2251 DEB", "OBJECT_ID": "1993-036QM", "EPOCH": "2025-12-15T15:32:55.921344", "MEAN_MOTION": 14.74505815, "ECCENTRICITY": 0.00056928, "INCLINATION": 74.0281, "RA_OF_ASC_NODE": 118.3511, "ARG_OF_PERICENTER": 157.7545, "MEAN_ANOMALY": 220.9554, "EPHEMERIS_TYPE": 0, "CLASSIFICATION_TYPE": "U", "NORAD_CAT_ID": 34396, "ELEMENT_SET_NO": 999, "REV_AT_EPOCH": 88389, "BSTAR": 0.0014298977, "MEAN_MOTION_DOT": 9.494e-05, "MEAN_MOTION_DDOT": 0}, "tle": {"line1": "1 34396U 93036QM  25349.64786946  .00009494  00000+0  14299-2 0  9991", "line2": "2 34396  74.0281 118.3511 0005692 157.7545 220.9554 14.74505815883898"}}, "geometry": {"type": "Point", "coordinates": [108.14735911438406, -26.565531867370833]}}]}